{
  "norad_id": 61576,
  "name": "STARLINK-11372 [DTC]",
  "history": [
    {
      "epoch": "2026-03-28T17:45:53.882208Z",
      "apogee_km": 360.8192302681782,
      "perigee_km": 358.6039604070038,
      "latitude_deg": 1.5075582900413703e-05,
      "longitude_deg": 109.61848488506533,
      "height_km": 360.93483219171725,
      "semi_major_axis_km": 6737.848595337591,
      "eccentricity": 0.00016439,
      "inclination_deg": 53.1609,
      "raan_deg": 202.2493,
      "arg_perigee_deg": 106.2606,
      "mean_anomaly_deg": 253.8593,
      "mean_motion_rev_day": 15.69715296
    },
    {
      "epoch": "2026-03-29T07:31:03.681120Z",
      "apogee_km": 360.6564201440906,
      "perigee_km": 358.85821090916306,
      "latitude_deg": 1.738516046432448e-05,
      "longitude_deg": -100.06034635617503,
      "height_km": 360.66754235856894,
      "semi_major_axis_km": 6737.894315526627,
      "eccentricity": 0.00013344,
      "inclination_deg": 53.1606,
      "raan_deg": 199.4261,
      "arg_perigee_deg": 89.7979,
      "mean_anomaly_deg": 270.3192,
      "mean_motion_rev_day": 15.69699319
    },
    {
      "epoch": "2026-03-30T12:33:03.911616Z",
      "apogee_km": 360.39521379170765,
      "perigee_km": 359.0677189464632,
      "latitude_deg": 7.061320488907547e-05,
      "longitude_deg": 177.28267458880273,
      "height_km": 360.2810654775813,
      "semi_major_axis_km": 6737.868466369086,
      "eccentricity": 9.851e-05,
      "inclination_deg": 53.1608,
      "raan_deg": 193.4624,
      "arg_perigee_deg": 56.6899,
      "mean_anomaly_deg": 303.4214,
      "mean_motion_rev_day": 15.69708352
    },
    {
      "epoch": "2026-03-30T17:08:06.921600Z",
      "apogee_km": 360.4169003630095,
      "perigee_km": 359.0515381391406,
      "latitude_deg": -2.6466827928522323e-06,
      "longitude_deg": 107.38921348481486,
      "height_km": 360.4008582394918,
      "semi_major_axis_km": 6737.871219251075,
      "eccentricity": 0.00010132,
      "inclination_deg": 53.1609,
      "raan_deg": 192.5198,
      "arg_perigee_deg": 68.759,
      "mean_anomaly_deg": 291.3536,
      "mean_motion_rev_day": 15.6970739
    },
    {
      "epoch": "2026-03-31T13:00:00.295776Z",
      "apogee_km": 360.4829445736623,
      "perigee_km": 359.06528807478753,
      "latitude_deg": -6.574811371784055e-05,
      "longitude_deg": 164.52235574605353,
      "height_km": 360.41176441100316,
      "semi_major_axis_km": 6737.911116324225,
      "eccentricity": 0.0001052,
      "inclination_deg": 53.1606,
      "raan_deg": 188.4412,
      "arg_perigee_deg": 67.0616,
      "mean_anomaly_deg": 293.0512,
      "mean_motion_rev_day": 15.69693448
    },
    {
      "epoch": "2026-03-31T23:41:48.748992Z",
      "apogee_km": 360.4338082004606,
      "perigee_km": 359.2692142661799,
      "latitude_deg": 2.1995955123866637e-05,
      "longitude_deg": 1.433131678078891,
      "height_km": 360.5491117350564,
      "semi_major_axis_km": 6737.98851123332,
      "eccentricity": 8.642e-05,
      "inclination_deg": 53.1594,
      "raan_deg": 186.2431,
      "arg_perigee_deg": 68.1868,
      "mean_anomaly_deg": 291.9242,
      "mean_motion_rev_day": 15.69666403
    },
    {
      "epoch": "2026-04-02T12:22:12.206784Z",
      "apogee_km": 360.3395886687149,
      "perigee_km": 359.14860080640847,
      "latitude_deg": 8.402818073980792e-06,
      "longitude_deg": 162.29866826448597,
      "height_km": 360.1447794653836,
      "semi_major_axis_km": 6737.881094737561,
      "eccentricity": 8.838e-05,
      "inclination_deg": 53.1615,
      "raan_deg": 178.7125,
      "arg_perigee_deg": 30.329,
      "mean_anomaly_deg": 329.7779,
      "mean_motion_rev_day": 15.69703939
    },
    {
      "epoch": "2026-04-03T14:20:51.048384Z",
      "apogee_km": 360.3225136075371,
      "perigee_km": 359.2565736283368,
      "latitude_deg": -1.9032640899436854e-05,
      "longitude_deg": 126.23285190994268,
      "height_km": 360.7925759617737,
      "semi_major_axis_km": 6737.926543617937,
      "eccentricity": 7.91e-05,
      "inclination_deg": 53.1588,
      "raan_deg": 173.3754,
      "arg_perigee_deg": 99.6225,
      "mean_anomaly_deg": 260.4882,
      "mean_motion_rev_day": 15.69688057
    },
    {
      "epoch": "2026-04-04T14:47:43.929888Z",
      "apogee_km": 360.2500760389912,
      "perigee_km": 359.0682665905424,
      "latitude_deg": -3.2971183607572596e-06,
      "longitude_deg": 113.48437880425635,
      "height_km": 360.38423114378935,
      "semi_major_axis_km": 6737.796171314767,
      "eccentricity": 8.77e-05,
      "inclination_deg": 53.1586,
      "raan_deg": 168.3513,
      "arg_perigee_deg": 71.3651,
      "mean_anomaly_deg": 288.7462,
      "mean_motion_rev_day": 15.69733616
    },
    {
      "epoch": "2026-04-05T10:39:41.362272Z",
      "apogee_km": 360.41222099837614,
      "perigee_km": 359.21084477496333,
      "latitude_deg": -3.280695120635529e-05,
      "longitude_deg": 170.60178834228847,
      "height_km": 360.4483273300923,
      "semi_major_axis_km": 6737.948532886669,
      "eccentricity": 8.915e-05,
      "inclination_deg": 53.1595,
      "raan_deg": 164.2739,
      "arg_perigee_deg": 62.5161,
      "mean_anomaly_deg": 297.5947,
      "mean_motion_rev_day": 15.69680373
    },
    {
      "epoch": "2026-04-06T04:59:50.864640Z",
      "apogee_km": 360.25749809053286,
      "perigee_km": 359.0787864589429,
      "latitude_deg": 1.5656441914055276e-05,
      "longitude_deg": -108.95660191346474,
      "height_km": 360.5368307737131,
      "semi_major_axis_km": 6737.805142274738,
      "eccentricity": 8.747e-05,
      "inclination_deg": 53.16,
      "raan_deg": 160.5081,
      "arg_perigee_deg": 85.5937,
      "mean_anomaly_deg": 274.5181,
      "mean_motion_rev_day": 15.69730481
    }
  ]
}